[{"OBJECT_NAME":"HELIOS 1B","OBJECT_ID":"1999-064A","EPOCH":"2026-03-09T17:07:56.855136","MEAN_MOTION":14.87699059,"ECCENTRICITY":0.0002452,"INCLINATION":98.1691,"RA_OF_ASC_NODE":330.9581,"ARG_OF_PERICENTER":75.0933,"MEAN_ANOMALY":285.0554,"EPHEMERIS_TYPE":0,"CLASSIFICATION_TYPE":"U","NORAD_CAT_ID":25977,"ELEMENT_SET_NO":999,"REV_AT_EPOCH":68526,"BSTAR":0.00024578,"MEAN_MOTION_DOT":2.181e-5,"MEAN_MOTION_DDOT":0},{"OBJECT_NAME":"TERRA","OBJECT_ID":"1999-068A","EPOCH":"2026-03-09T20:26:34.934208","MEAN_MOTION":14.61014936,"ECCENTRICITY":0.0002714,"INCLINATION":97.9593,"RA_OF_ASC_NODE":122.2803,"ARG_OF_PERICENTER":150.9384,"MEAN_ANOMALY":267.9776,"EPHEMERIS_TYPE":0,"CLASSIFICATION_TYPE":"U","NORAD_CAT_ID":25994,"ELEMENT_SET_NO":999,"REV_AT_EPOCH":39510,"BSTAR":0.00012411,"MEAN_MOTION_DOT":5.64e-6,"MEAN_MOTION_DDOT":0},{"OBJECT_NAME":"SL-16 R/B","OBJECT_ID":"2000-006B","EPOCH":"2026-03-09T12:25:47.584704","MEAN_MOTION":14.15825785,"ECCENTRICITY":0.00167935,"INCLINATION":71.001,"RA_OF_ASC_NODE":98.1989,"ARG_OF_PERICENTER":190.476,"MEAN_ANOMALY":169.6016,"EPHEMERIS_TYPE":0,"CLASSIFICATION_TYPE":"U","NORAD_CAT_ID":26070,"ELEMENT_SET_NO":999,"REV_AT_EPOCH":34853,"BSTAR":-2.068296e-5,"MEAN_MOTION_DOT":-8.9e-7,"MEAN_MOTION_DDOT":0},{"OBJECT_NAME":"TITAN 4B R/B","OBJECT_ID":"2000-047B","EPOCH":"2026-03-09T19:53:51.604800","MEAN_MOTION":15.09564407,"ECCENTRICITY":0.0038619,"INCLINATION":67.9901,"RA_OF_ASC_NODE":40.1183,"ARG_OF_PERICENTER":35.2415,"MEAN_ANOMALY":325.1276,"EPHEMERIS_TYPE":0,"CLASSIFICATION_TYPE":"U","NORAD_CAT_ID":26474,"ELEMENT_SET_NO":999,"REV_AT_EPOCH":39293,"BSTAR":0.00034987,"MEAN_MOTION_DOT":5.597e-5,"MEAN_MOTION_DDOT":0},{"OBJECT_NAME":"ENVISAT","OBJECT_ID":"2002-009A","EPOCH":"2026-03-09T21:23:09.591936","MEAN_MOTION":14.39037082,"ECCENTRICITY":0.0001301,"INCLINATION":98.3728,"RA_OF_ASC_NODE":22.4836,"ARG_OF_PERICENTER":82.807,"MEAN_ANOMALY":343.1988,"EPHEMERIS_TYPE":0,"CLASSIFICATION_TYPE":"U","NORAD_CAT_ID":27386,"ELEMENT_SET_NO":999,"REV_AT_EPOCH":25920,"BSTAR":7.2747e-5,"MEAN_MOTION_DOT":1.82e-6,"MEAN_MOTION_DDOT":0},{"OBJECT_NAME":"IDEFIX & ARIANE 42P R/B","OBJECT_ID":"2002-021B","EPOCH":"2026-03-09T18:36:46.968768","MEAN_MOTION":14.31026352,"ECCENTRICITY":0.0011576,"INCLINATION":98.5868,"RA_OF_ASC_NODE":7.3808,"ARG_OF_PERICENTER":182.0346,"MEAN_ANOMALY":178.0792,"EPHEMERIS_TYPE":0,"CLASSIFICATION_TYPE":"U","NORAD_CAT_ID":27422,"ELEMENT_SET_NO":999,"REV_AT_EPOCH":24403,"BSTAR":0.00016192,"MEAN_MOTION_DOT":3.83e-6,"MEAN_MOTION_DDOT":0},{"OBJECT_NAME":"AQUA","OBJECT_ID":"2002-022A","EPOCH":"2026-03-09T21:19:09.276384","MEAN_MOTION":14.61977745,"ECCENTRICITY":5.61e-5,"INCLINATION":98.4175,"RA_OF_ASC_NODE":36.2568,"ARG_OF_PERICENTER":81.0346,"MEAN_ANOMALY":331.7718,"EPHEMERIS_TYPE":0,"CLASSIFICATION_TYPE":"U","NORAD_CAT_ID":27424,"ELEMENT_SET_NO":999,"REV_AT_EPOCH":26876,"BSTAR":0.00028685,"MEAN_MOTION_DOT":1.388e-5,"MEAN_MOTION_DDOT":0},{"OBJECT_NAME":"CZ-4B R/B","OBJECT_ID":"2002-024C","EPOCH":"2026-03-09T17:29:24.728352","MEAN_MOTION":14.1454756,"ECCENTRICITY":0.0050481,"INCLINATION":98.8839,"RA_OF_ASC_NODE":122.1353,"ARG_OF_PERICENTER":24.1066,"MEAN_ANOMALY":86.7627,"EPHEMERIS_TYPE":0,"CLASSIFICATION_TYPE":"U","NORAD_CAT_ID":27432,"ELEMENT_SET_NO":999,"REV_AT_EPOCH":22924,"BSTAR":4.1658e-5,"MEAN_MOTION_DOT":3.6e-7,"MEAN_MOTION_DDOT":0},{"OBJECT_NAME":"MIDORI II (ADEOS-II)","OBJECT_ID":"2002-056A","EPOCH":"2026-03-09T20:58:08.669280","MEAN_MOTION":14.29285373,"ECCENTRICITY":0.000157,"INCLINATION":98.7769,"RA_OF_ASC_NODE":27.3525,"ARG_OF_PERICENTER":42.2245,"MEAN_ANOMALY":317.9057,"EPHEMERIS_TYPE":0,"CLASSIFICATION_TYPE":"U","NORAD_CAT_ID":27597,"ELEMENT_SET_NO":999,"REV_AT_EPOCH":21032,"BSTAR":0.00018155,"MEAN_MOTION_DOT":4.17e-6,"MEAN_MOTION_DDOT":0},{"OBJECT_NAME":"H-2A R/B","OBJECT_ID":"2002-056E","EPOCH":"2026-03-09T20:17:27.333600","MEAN_MOTION":14.3376082,"ECCENTRICITY":0.007052,"INCLINATION":98.3202,"RA_OF_ASC_NODE":29.2051,"ARG_OF_PERICENTER":160.21,"MEAN_ANOMALY":253.435,"EPHEMERIS_TYPE":0,"CLASSIFICATION_TYPE":"U","NORAD_CAT_ID":27601,"ELEMENT_SET_NO":999,"REV_AT_EPOCH":21413,"BSTAR":0.00013433,"MEAN_MOTION_DOT":3.42e-6,"MEAN_MOTION_DDOT":0},{"OBJECT_NAME":"CZ-4B R/B","OBJECT_ID":"2003-049C","EPOCH":"2026-03-09T20:45:26.947872","MEAN_MOTION":14.55020381,"ECCENTRICITY":0.0047264,"INCLINATION":98.688,"RA_OF_ASC_NODE":63.7765,"ARG_OF_PERICENTER":230.3613,"MEAN_ANOMALY":129.3408,"EPHEMERIS_TYPE":0,"CLASSIFICATION_TYPE":"U","NORAD_CAT_ID":28059,"ELEMENT_SET_NO":999,"REV_AT_EPOCH":18662,"BSTAR":0.00012359,"MEAN_MOTION_DOT":4.88e-6,"MEAN_MOTION_DDOT":0},{"OBJECT_NAME":"CZ-2C R/B","OBJECT_ID":"2004-012C","EPOCH":"2026-03-09T17:41:22.316640","MEAN_MOTION":15.64506189,"ECCENTRICITY":0.0012922,"INCLINATION":97.7227,"RA_OF_ASC_NODE":134.0339,"ARG_OF_PERICENTER":309.1452,"MEAN_ANOMALY":50.8657,"EPHEMERIS_TYPE":0,"CLASSIFICATION_TYPE":"U","NORAD_CAT_ID":28222,"ELEMENT_SET_NO":999,"REV_AT_EPOCH":20428,"BSTAR":0.00056669,"MEAN_MOTION_DOT":0.00054864,"MEAN_MOTION_DDOT":0},{"OBJECT_NAME":"SL-16 R/B","OBJECT_ID":"2004-021B","EPOCH":"2026-03-09T21:09:03.045600","MEAN_MOTION":14.14597913,"ECCENTRICITY":0.0004065,"INCLINATION":70.9995,"RA_OF_ASC_NODE":232.0903,"ARG_OF_PERICENTER":8.9977,"MEAN_ANOMALY":351.1217,"EPHEMERIS_TYPE":0,"CLASSIFICATION_TYPE":"U","NORAD_CAT_ID":28353,"ELEMENT_SET_NO":999,"REV_AT_EPOCH":12286,"BSTAR":-0.00010191,"MEAN_MOTION_DOT":-2.43e-6,"MEAN_MOTION_DDOT":0},{"OBJECT_NAME":"CZ-4B R/B","OBJECT_ID":"2004-035C","EPOCH":"2026-03-09T15:32:20.702976","MEAN_MOTION":15.29063015,"ECCENTRICITY":0.0031016,"INCLINATION":97.3501,"RA_OF_ASC_NODE":102.8902,"ARG_OF_PERICENTER":331.7135,"MEAN_ANOMALY":28.242,"EPHEMERIS_TYPE":0,"CLASSIFICATION_TYPE":"U","NORAD_CAT_ID":28415,"ELEMENT_SET_NO":999,"REV_AT_EPOCH":17990,"BSTAR":0.000326,"MEAN_MOTION_DOT":9.257e-5,"MEAN_MOTION_DDOT":0},{"OBJECT_NAME":"CZ-2C R/B","OBJECT_ID":"2004-046B","EPOCH":"2026-03-09T18:23:06.573120","MEAN_MOTION":14.26992119,"ECCENTRICITY":0.0139886,"INCLINATION":98.1983,"RA_OF_ASC_NODE":343.7453,"ARG_OF_PERICENTER":154.2177,"MEAN_ANOMALY":206.6065,"EPHEMERIS_TYPE":0,"CLASSIFICATION_TYPE":"U","NORAD_CAT_ID":28480,"ELEMENT_SET_NO":999,"REV_AT_EPOCH":10851,"BSTAR":7.4431e-5,"MEAN_MOTION_DOT":1.61e-6,"MEAN_MOTION_DDOT":0},{"OBJECT_NAME":"ARIANE 5 R/B","OBJECT_ID":"2004-049H","EPOCH":"2026-03-09T10:20:00.381408","MEAN_MOTION":14.85265161,"ECCENTRICITY":0.00839555,"INCLINATION":98.2627,"RA_OF_ASC_NODE":236.8779,"ARG_OF_PERICENTER":352.7695,"MEAN_ANOMALY":7.2301,"EPHEMERIS_TYPE":0,"CLASSIFICATION_TYPE":"U","NORAD_CAT_ID":28499,"ELEMENT_SET_NO":999,"REV_AT_EPOCH":14575,"BSTAR":0.00011561171,"MEAN_MOTION_DOT":9.91e-6,"MEAN_MOTION_DDOT":0},{"OBJECT_NAME":"CZ-2D R/B","OBJECT_ID":"2005-024B","EPOCH":"2026-03-09T13:56:47.986944","MEAN_MOTION":15.60135028,"ECCENTRICITY":0.0005871,"INCLINATION":97.3602,"RA_OF_ASC_NODE":83.723,"ARG_OF_PERICENTER":46.8038,"MEAN_ANOMALY":313.3708,"EPHEMERIS_TYPE":0,"CLASSIFICATION_TYPE":"U","NORAD_CAT_ID":28738,"ELEMENT_SET_NO":999,"REV_AT_EPOCH":13976,"BSTAR":0.00055121,"MEAN_MOTION_DOT":0.00044846,"MEAN_MOTION_DDOT":0}]
